{
    "links": {
        "self": "http://www.neowsapp.com/rest/v1/neo/3709397?api_key=iIulBulltgU6a56xZRHN4H3l9WmuAYTsLGpBGhQ2"
    },
    "id": "3709397",
    "neo_reference_id": "3709397",
    "name": "(2015 BH514)",
    "designation": "2015 BH514",
    "nasa_jpl_url": "http://ssd.jpl.nasa.gov/sbdb.cgi?sstr=3709397",
    "absolute_magnitude_h": 23.2,
    "estimated_diameter": {
        "kilometers": {
            "estimated_diameter_min": 0.0608912622,
            "estimated_diameter_max": 0.1361570015
        },
        "meters": {
            "estimated_diameter_min": 60.8912622106,
            "estimated_diameter_max": 136.1570015386
        },
        "miles": {
            "estimated_diameter_min": 0.0378360645,
            "estimated_diameter_max": 0.0846040122
        },
        "feet": {
            "estimated_diameter_min": 199.7744887109,
            "estimated_diameter_max": 446.7093369279
        }
    },
    "is_potentially_hazardous_asteroid": false,
    "close_approach_data": [
        {
            "close_approach_date": "2015-02-04",
            "close_approach_date_full": "2015-Feb-04 20:39",
            "epoch_date_close_approach": 1423082340000,
            "relative_velocity": {
                "kilometers_per_second": "20.3885250665",
                "kilometers_per_hour": "73398.6902392232",
                "miles_per_hour": "45607.091721144"
            },
            "miss_distance": {
                "astronomical": "0.0569110132",
                "lunar": "22.1383841348",
                "kilometers": "8513766.354261884",
                "miles": "5290209.1022826392"
            },
            "orbiting_body": "Earth"
        },
        {
            "close_approach_date": "2016-08-10",
            "close_approach_date_full": "2016-Aug-10 17:27",
            "epoch_date_close_approach": 1470850020000,
            "relative_velocity": {
                "kilometers_per_second": "21.3198329394",
                "kilometers_per_hour": "76751.398581831",
                "miles_per_hour": "47690.3343021383"
            },
            "miss_distance": {
                "astronomical": "0.1245841921",
                "lunar": "48.4632507269",
                "kilometers": "18637529.773830827",
                "miles": "11580823.9915143326"
            },
            "orbiting_body": "Earth"
        }
    ],
    "orbital_data": {
        "orbit_id": "9",
        "orbit_determination_date": "2017-04-06 08:35:57",
        "first_observation_date": "2015-01-26",
        "last_observation_date": "2015-02-06",
        "data_arc_in_days": 11,
        "observations_used": 24,
        "orbit_uncertainty": "9",
        "minimum_orbit_intersection": ".0558095",
        "jupiter_tisserand_invariant": "5.345",
        "epoch_osculation": "2457050.5",
        "eccentricity": ".3901099853982153",
        "semi_major_axis": "1.124291622091506",
        "inclination": "33.17362351021624",
        "ascending_node_longitude": "132.1504747470586",
        "orbital_period": "435.4285372076211",
        "perihelion_distance": ".6856942338140528",
        "perihelion_argument": "104.5522981215331",
        "aphelion_distance": "1.562889010368959",
        "perihelion_time": "2457126.094452725356",
        "mean_anomaly": "297.5006444096429",
        "mean_motion": ".8267717185204716",
        "equinox": "J2000",
        "orbit_class": {
            "orbit_class_type": "APO",
            "orbit_class_description": "Near-Earth asteroid orbits which cross the Earth’s orbit similar to that of 1862 Apollo",
            "orbit_class_range": "a (semi-major axis) > 1.0 AU; q (perihelion) < 1.017 AU"
        }
    },
    "is_sentry_object": false
}